CTC2_L_00286001-01
1 87155U 25843YE  26070.40846065  .00000000  00000+0  00000-0 0  9995
2 87155 100.0000   0.0000 0000000   0.0000   0.0000 13.89609395    13
CTC2_L_00286001-02
1 87156U 23040UD  26070.40846065  .00000000  00000+0  00000-0 0  9993
2 87156 100.0000   0.0000 0000000   0.0000  90.0000 13.89609395    13
CTC2_L_00286001-03
1 87157U 22694MV  26070.40846065  .00000000  00000+0  00000-0 0  9998
2 87157 100.0000   0.0000 0000000   0.0000 180.0000 13.89609395    14
CTC2_L_00286001-04
1 87158U 22986NK  26070.40846065  .00000000  00000+0  00000-0 0  9993
2 87158 100.0000   0.0000 0000000   0.0000 270.0000 13.89609395    15
CTC2_L_00286002-01
1 87159U 23450IB  26070.40846065  .00000000  00000+0  00000-0 0  9991
2 87159 100.0000  12.0000 0000000   0.0000  12.0000 13.89609395    13
CTC2_L_00286002-02
1 87160U 23636QM  26070.40846065  .00000000  00000+0  00000-0 0  9999
2 87160 100.0000  12.0000 0000000   0.0000 102.0000 13.89609395    15
CTC2_L_00286002-03
1 87161U 26603ZT  26070.40846065  .00000000  00000+0  00000-0 0  9997
2 87161 100.0000  12.0000 0000000   0.0000 192.0000 13.89609395    15
CTC2_L_00286002-04
1 87162U 23612ZI  26070.40846065  .00000000  00000+0  00000-0 0  9995
2 87162 100.0000  12.0000 0000000   0.0000 282.0000 13.89609395    16
CTC2_L_00286003-01
1 87163U 25114JR  26070.40846065  .00000000  00000+0  00000-0 0  9995
2 87163 100.0000  24.0000 0000000   0.0000  24.0000 13.89609395    14
CTC2_L_00286003-02
1 87164U 23221KO  26070.40846065  .00000000  00000+0  00000-0 0  9993
2 87164 100.0000  24.0000 0000000   0.0000 114.0000 13.89609395    15
CTC2_L_00286003-03
1 87165U 23600XZ  26070.40846065  .00000000  00000+0  00000-0 0  9995
2 87165 100.0000  24.0000 0000000   0.0000 204.0000 13.89609395    16
CTC2_L_00286003-04
1 87166U 22084PF  26070.40846065  .00000000  00000+0  00000-0 0  9991
2 87166 100.0000  24.0000 0000000   0.0000 294.0000 13.89609395    16
CTC2_L_00286004-01
1 87167U 24025UM  26070.40846065  .00000000  00000+0  00000-0 0  9999
2 87167 100.0000  36.0000 0000000   0.0000  36.0000 13.89609395    14
CTC2_L_00286004-02
1 87168U 26635BX  26070.40846065  .00000000  00000+0  00000-0 0  9999
2 87168 100.0000  36.0000 0000000   0.0000 126.0000 13.89609395    15
CTC2_L_00286004-03
1 87169U 23573ZP  26070.40846065  .00000000  00000+0  00000-0 0  9998
2 87169 100.0000  36.0000 0000000   0.0000 216.0000 13.89609395    16
CTC2_L_00286004-04
1 87170U 25153NE  26070.40846065  .00000000  00000+0  00000-0 0  9996
2 87170 100.0000  36.0000 0000000   0.0000 306.0000 13.89609395    18
CTC2_L_00286005-01
1 87171U 23097AK  26070.40846065  .00000000  00000+0  00000-0 0  9992
2 87171 100.0000  48.0000 0000000   0.0000  48.0000 13.89609395    15
CTC2_L_00286005-02
1 87172U 24859VL  26070.40846065  .00000000  00000+0  00000-0 0  9990
2 87172 100.0000  48.0000 0000000   0.0000 138.0000 13.89609395    16
CTC2_L_00286005-03
1 87173U 22374DP  26070.40846065  .00000000  00000+0  00000-0 0  9991
2 87173 100.0000  48.0000 0000000   0.0000 228.0000 13.89609395    17
CTC2_L_00286005-04
1 87174U 22211DZ  26070.40846065  .00000000  00000+0  00000-0 0  9992
2 87174 100.0000  48.0000 0000000   0.0000 318.0000 13.89609395    18
CTC2_L_00286006-01
1 87175U 26905JK  26070.40846065  .00000000  00000+0  00000-0 0  9997
2 87175 100.0000  60.0000 0000000   0.0000  60.0000 13.89609395    17
CTC2_L_00286006-02
1 87176U 22071GW  26070.40846065  .00000000  00000+0  00000-0 0  9998
2 87176 100.0000  60.0000 0000000   0.0000 150.0000 13.89609395    18
CTC2_L_00286006-03
1 87177U 22870DC  26070.40846065  .00000000  00000+0  00000-0 0  9996
2 87177 100.0000  60.0000 0000000   0.0000 240.0000 13.89609395    19
CTC2_L_00286006-04
1 87178U 22186KB  26070.40846065  .00000000  00000+0  00000-0 0  9997
2 87178 100.0000  60.0000 0000000   0.0000 330.0000 13.89609395    10
CTC2_L_00286007-01
1 87179U 23600WJ  26070.40846065  .00000000  00000+0  00000-0 0  9990
2 87179 100.0000  72.0000 0000000   0.0000  72.0000 13.89609395    17
CTC2_L_00286007-02
1 87180U 26784AZ  26070.40846065  .00000000  00000+0  00000-0 0  9998
2 87180 100.0000  72.0000 0000000   0.0000 162.0000 13.89609395    19
CTC2_L_00286007-03
1 87181U 26568WG  26070.40846065  .00000000  00000+0  00000-0 0  9999
2 87181 100.0000  72.0000 0000000   0.0000 252.0000 13.89609395    10
CTC2_L_00286007-04
1 87182U 25978VN  26070.40846065  .00000000  00000+0  00000-0 0  9994
2 87182 100.0000  72.0000 0000000   0.0000 342.0000 13.89609395    11
CTC2_L_00286008-01
1 87183U 24341MH  26070.40846065  .00000000  00000+0  00000-0 0  9998
2 87183 100.0000  84.0000 0000000   0.0000  84.0000 13.89609395    18
CTC2_L_00286008-02
1 87184U 24333SP  26070.40846065  .00000000  00000+0  00000-0 0  9990
2 87184 100.0000  84.0000 0000000   0.0000 174.0000 13.89609395    19
CTC2_L_00286008-03
1 87185U 25428WF  26070.40846065  .00000000  00000+0  00000-0 0  9997
2 87185 100.0000  84.0000 0000000   0.0000 264.0000 13.89609395    10
CTC2_L_00286008-04
1 87186U 25768UG  26070.40846065  .00000000  00000+0  00000-0 0  9995
2 87186 100.0000  84.0000 0000000   0.0000 354.0000 13.89609395    11
CTC2_L_00286009-01
1 87187U 24319ZM  26070.40846065  .00000000  00000+0  00000-0 0  9997
2 87187 100.0000  96.0000 0000000   0.0000  96.0000 13.89609395    18
CTC2_L_00286009-02
1 87188U 26844SF  26070.40846065  .00000000  00000+0  00000-0 0  9993
2 87188 100.0000  96.0000 0000000   0.0000 186.0000 13.89609395    19
CTC2_L_00286009-03
1 87189U 22823ZX  26070.40846065  .00000000  00000+0  00000-0 0  9997
2 87189 100.0000  96.0000 0000000   0.0000 276.0000 13.89609395    10
CTC2_L_00286009-04
1 87190U 26292UM  26070.40846065  .00000000  00000+0  00000-0 0  9993
2 87190 100.0000  96.0000 0000000   0.0000   6.0000 13.89609395    13
CTC2_L_00286010-01
1 87191U 24372N   26070.40846065  .00000000  00000+0  00000-0 0  9991
2 87191 100.0000 108.0000 0000000   0.0000 108.0000 13.89609395    11
CTC2_L_00286010-02
1 87192U 25206TG  26070.40846065  .00000000  00000+0  00000-0 0  9999
2 87192 100.0000 108.0000 0000000   0.0000 198.0000 13.89609395    11
CTC2_L_00286010-03
1 87193U 23211DI  26070.40846065  .00000000  00000+0  00000-0 0  9994
2 87193 100.0000 108.0000 0000000   0.0000 288.0000 13.89609395    12
CTC2_L_00286010-04
1 87194U 23300LB  26070.40846065  .00000000  00000+0  00000-0 0  9994
2 87194 100.0000 108.0000 0000000   0.0000  18.0000 13.89609395    14
CTC2_L_00286011-01
1 87195U 23706QB  26070.40846065  .00000000  00000+0  00000-0 0  9995
2 87195 100.0000 120.0000 0000000   0.0000 120.0000 13.89609395    13
CTC2_L_00286011-02
1 87196U 22876ST  26070.40846065  .00000000  00000+0  00000-0 0  9993
2 87196 100.0000 120.0000 0000000   0.0000 210.0000 13.89609395    14
CTC2_L_00286011-03
1 87197U 26892FB  26070.40846065  .00000000  00000+0  00000-0 0  9996
2 87197 100.0000 120.0000 0000000   0.0000 300.0000 13.89609395    15
CTC2_L_00286011-04
1 87198U 22337IL  26070.40846065  .00000000  00000+0  00000-0 0  9997
2 87198 100.0000 120.0000 0000000   0.0000  30.0000 13.89609395    16
CTC2_L_00286012-01
1 87199U 25951U   26070.40846065  .00000000  00000+0  00000-0 0  9993
2 87199 100.0000 132.0000 0000000   0.0000 132.0000 13.89609395    13
CTC2_L_00286012-02
1 87200U 25375RU  26070.40846065  .00000000  00000+0  00000-0 0  9996
2 87200 100.0000 132.0000 0000000   0.0000 222.0000 13.89609395    16
CTC2_L_00286012-03
1 87201U 23457VV  26070.40846065  .00000000  00000+0  00000-0 0  9996
2 87201 100.0000 132.0000 0000000   0.0000 312.0000 13.89609395    17
CTC2_L_00286012-04
1 87202U 26694PV  26070.40846065  .00000000  00000+0  00000-0 0  9993
2 87202 100.0000 132.0000 0000000   0.0000  42.0000 13.89609395    18
CTC2_L_00286013-01
1 87203U 25276KX  26070.40846065  .00000000  00000+0  00000-0 0  9999
2 87203 100.0000 144.0000 0000000   0.0000 144.0000 13.89609395    15
CTC2_L_00286013-02
1 87204U 26897KO  26070.40846065  .00000000  00000+0  00000-0 0  9990
2 87204 100.0000 144.0000 0000000   0.0000 234.0000 13.89609395    16
CTC2_L_00286013-03
1 87205U 24585VK  26070.40846065  .00000000  00000+0  00000-0 0  9993
2 87205 100.0000 144.0000 0000000   0.0000 324.0000 13.89609395    17
CTC2_L_00286013-04
1 87206U 22120TD  26070.40846065  .00000000  00000+0  00000-0 0  9997
2 87206 100.0000 144.0000 0000000   0.0000  54.0000 13.89609395    18
CTC2_L_00286014-01
1 87207U 25177O   26070.40846065  .00000000  00000+0  00000-0 0  9993
2 87207 100.0000 156.0000 0000000   0.0000 156.0000 13.89609395    15
CTC2_L_00286014-02
1 87208U 23759KW  26070.40846065  .00000000  00000+0  00000-0 0  9998
2 87208 100.0000 156.0000 0000000   0.0000 246.0000 13.89609395    16
CTC2_L_00286014-03
1 87209U 23177CN  26070.40846065  .00000000  00000+0  00000-0 0  9993
2 87209 100.0000 156.0000 0000000   0.0000 336.0000 13.89609395    17
CTC2_L_00286014-04
1 87210U 22029SZ  26070.40846065  .00000000  00000+0  00000-0 0  9990
2 87210 100.0000 156.0000 0000000   0.0000  66.0000 13.89609395    19
CTC2_L_00286015-01
1 87211U 22437LY  26070.40846065  .00000000  00000+0  00000-0 0  9994
2 87211 100.0000 168.0000 0000000   0.0000 168.0000 13.89609395    16
CTC2_L_00286015-02
1 87212U 24579G   26070.40846065  .00000000  00000+0  00000-0 0  9994
2 87212 100.0000 168.0000 0000000   0.0000 258.0000 13.89609395    17
CTC2_L_00286015-03
1 87213U 23044WP  26070.40846065  .00000000  00000+0  00000-0 0  9991
2 87213 100.0000 168.0000 0000000   0.0000 348.0000 13.89609395    18
CTC2_L_00286015-04
1 87214U 24740RP  26070.40846065  .00000000  00000+0  00000-0 0  9996
2 87214 100.0000 168.0000 0000000   0.0000  78.0000 13.89609395    19
CTC2_L_00286016-01
1 87215U 26450EY  26070.40846065  .00000000  00000+0  00000-0 0  9997
2 87215 100.0000 180.0000 0000000   0.0000 180.0000 13.89609395    18
CTC2_L_00286016-02
1 87216U 26196B   26070.40846065  .00000000  00000+0  00000-0 0  9995
2 87216 100.0000 180.0000 0000000   0.0000 270.0000 13.89609395    19
